     2.11           N: GPS NAV DATA                         RINEX VERSION / TYPE
teqc  2019Feb25                         20221121 12:24:00UTCPGM / RUN BY / DATE
OSX ker:10.11.6|Core i5|gcc 4.3 -m64|OSX ker:10.10+|=+      COMMENT
    6.5193D-09  2.2352D-08 -5.9605D-08 -1.1921D-07          ION ALPHA
    8.6016D+04  9.8304D+04 -6.5536D+04 -5.2429D+05          ION BETA
    1.862645149231D-09 8.881784197001D-16   319488     1535 DELTA-UTC: A0,A1,T,W
                                                            END OF HEADER
16 09  6  9  0  0  0.0 4.371022805572D-05-3.410605131648D-12 0.000000000000D+00
    2.000000000000D+00-6.856250000000D+01 4.188031591183D-09 2.837992765744D+00
   -3.378838300705D-06 5.357114598155D-03 1.070834696293D-05 5.153567060471D+03
    1.728000000000D+05-1.192092895508D-07-2.718412813514D+00 1.378357410431D-07
    9.688163027906D-01 1.788125000000D+02-3.472571932502D-01-7.571029649489D-09
    4.264463346301D-10 1.000000000000D+00 1.535000000000D+03 0.000000000000D+00
    2.000000000000D+00 0.000000000000D+00-9.778887033463D-09 2.000000000000D+00
    1.656180000000D+05 4.000000000000D+00
23 09  6  9  0  0  0.0 3.901999443769D-04 0.000000000000D+00 0.000000000000D+00
    1.000000000000D+02 6.268750000000D+01 4.429827377234D-09 5.713025850687D-01
    3.306195139885D-06 6.171808461659D-03 1.167878508568D-06 5.153603265762D+03
    1.728000000000D+05 9.313225746155D-08 1.453795234350D+00 9.313225746155D-09
    9.701008531201D-01 3.607187500000D+02 2.887707969565D+00-8.308560370604D-09
    2.853690296227D-10 1.000000000000D+00 1.535000000000D+03 0.000000000000D+00
    2.000000000000D+00 0.000000000000D+00-2.002343535423D-08 1.000000000000D+02
    1.656180000000D+05 4.000000000000D+00
29 09  6  9  0  0  0.0 2.826936542988D-05 3.751665644813D-12 0.000000000000D+00
    3.700000000000D+01 1.075000000000D+01 4.849844872649D-09-1.975740562393D+00
    4.339963197708D-07 3.414136357605D-03 5.623325705528D-06 5.153659885406D+03
    1.728000000000D+05 3.725290298462D-09-1.667884229547D+00 1.061707735062D-07
    9.594636817193D-01 2.692812500000D+02-1.316866254274D+00-7.974260731396D-09
    1.232194182976D-10 1.000000000000D+00 1.535000000000D+03 0.000000000000D+00
    2.000000000000D+00 0.000000000000D+00-8.847564458847D-09 3.700000000000D+01
    1.656180000000D+05 4.000000000000D+00
25 09  6  9  0  0  0.0 4.533682949841D-04 1.818989403546D-11 0.000000000000D+00
    4.700000000000D+01-1.075312500000D+02 4.327680265254D-09-2.842795944193D+00
   -5.489215254784D-06 1.136795605998D-02 2.840533852577D-06 5.153652307510D+03
    1.728000000000D+05 1.024454832077D-07 2.401687759250D+00 1.750886440277D-07
    9.698729143913D-01 3.249375000000D+02-1.208378473151D+00-7.915686862988D-09
   -6.607418082628D-11 1.000000000000D+00 1.535000000000D+03 0.000000000000D+00
    2.800000000000D+00 0.000000000000D+00-7.450580596924D-09 4.700000000000D+01
    1.656180000000D+05 4.000000000000D+00
24 09  6  9  0  0  0.0 1.953151077032D-04 2.955857780762D-12 0.000000000000D+00
    9.800000000000D+01-2.187500000000D+00 4.584476676141D-09 2.942931330594D+00
   -1.508742570877D-07 6.687829503790D-03 8.406117558479D-06 5.153672521591D+03
    1.728000000000D+05 2.421438694000D-08-5.954602589442D-01 2.980232238770D-08
    9.506669358709D-01 2.155937500000D+02-6.498889789646D-01-7.746751254713D-09
   -7.025292631637D-10 1.000000000000D+00 1.535000000000D+03 0.000000000000D+00
    2.800000000000D+00 0.000000000000D+00-1.396983861923D-09 9.800000000000D+01
    1.656180000000D+05 4.000000000000D+00
 6 09  6  9  0  0  0.0 1.541427336633D-04 1.364242052659D-11 0.000000000000D+00
    9.200000000000D+01 1.125000000000D+01 5.525944463482D-09 2.800003167782D+00
    8.065253496170D-07 5.992705468088D-03 5.444511771202D-06 5.153695400238D+03
    1.728000000000D+05 1.918524503708D-07-1.739730117211D+00-1.676380634308D-08
    9.333332160005D-01 2.552187500000D+02-1.349679250781D+00-8.301774373654D-09
    1.950081228711D-10 1.000000000000D+00 1.535000000000D+03 0.000000000000D+00
    2.000000000000D+00 0.000000000000D+00-4.656612873077D-09 9.200000000000D+01
    1.656180000000D+05 4.000000000000D+00
10 09  6  9  0  0  0.0-1.724436879158D-05-5.684341886081D-13 0.000000000000D+00
    4.400000000000D+01 1.048125000000D+02 4.137315192927D-09 1.632928739774D+00
    5.455687642097D-06 8.577544707805D-03 9.180977940559D-06 5.153622087479D+03
    1.728000000000D+05-1.322478055954D-07 4.247650390888D-01-5.587935447693D-09
    9.585234291597D-01 2.035937500000D+02 6.253703739405D-01-7.828183218110D-09
   -1.067901625246D-10 1.000000000000D+00 1.535000000000D+03 0.000000000000D+00
    2.800000000000D+00 0.000000000000D+00-2.793967723846D-09 4.400000000000D+01
    1.656180000000D+05 4.000000000000D+00
21 09  6  9  0  0  0.0 9.441282600164D-06-2.046363078989D-12 0.000000000000D+00
    4.100000000000D+01-1.000000000000D+01 4.982707549770D-09-1.979333127855D+00
   -7.003545761108D-07 1.535062259063D-02 7.715076208115D-06 5.153605792999D+03
    1.728000000000D+05 8.195638656616D-08-6.277891743961D-01-1.806765794754D-07
    9.340030364498D-01 2.154062500000D+02-2.594799224557D+00-7.923187175406D-09
   -4.453756945425D-10 1.000000000000D+00 1.535000000000D+03 0.000000000000D+00
    2.000000000000D+00 0.000000000000D+00-1.210719347000D-08 4.100000000000D+01
    1.656180000000D+05 4.000000000000D+00
 3 09  6  9  0  0  0.0 4.040924832225D-04 5.115907697473D-12 0.000000000000D+00
    5.000000000000D+01 1.328125000000D+01 5.768097407267D-09 3.604756499549D-01
    9.909272193909D-07 1.189985219389D-02 5.807727575302D-06 5.153625818253D+03
    1.728000000000D+05-5.029141902924D-08-1.807453605595D+00 1.192092895508D-07
    9.258889905815D-01 2.465000000000D+02 9.037642520373D-01-8.671075470813D-09
    1.900079145923D-10 1.000000000000D+00 1.535000000000D+03 0.000000000000D+00
    2.800000000000D+00 0.000000000000D+00-4.190951585770D-09 5.000000000000D+01
    1.656180000000D+05 4.000000000000D+00
 7 09  6  9  0  0  0.0 1.740967854857D-05-6.821210263297D-13 0.000000000000D+00
    1.150000000000D+02-1.122500000000D+02 4.429470219500D-09-1.004405205371D+00
   -5.990266799927D-06 2.652902621776D-03 3.930181264877D-06 5.153669151306D+03
    1.728000000000D+05 4.097819328308D-08 2.496158817548D+00-2.048909664154D-08
    9.676984753829D-01 3.059687500000D+02 2.874745100741D+00-8.110694985859D-09
   -6.928860043404D-11 1.000000000000D+00 1.535000000000D+03 0.000000000000D+00
    2.000000000000D+00 0.000000000000D+00-1.071020960808D-08 1.150000000000D+02
    1.656180000000D+05 4.000000000000D+00
31 09  6  9  0  0  0.0-6.195856258273D-05-6.821210263297D-13 0.000000000000D+00
    7.400000000000D+01-1.269062500000D+02 4.408397913182D-09-1.189443358302D+00
   -6.595626473427D-06 7.020247401670D-03 4.369765520096D-06 5.153729627609D+03
    1.728000000000D+05-1.508742570877D-07 2.494097280706D+00-1.490116119385D-08
    9.730654770886D-01 3.069687500000D+02-1.139676889443D+00-8.175697693483D-09
   -1.250052069686D-10 1.000000000000D+00 1.535000000000D+03 0.000000000000D+00
    2.000000000000D+00 0.000000000000D+00-1.303851604462D-08 7.400000000000D+01
    1.656180000000D+05 4.000000000000D+00
19 09  6  9  0  0  0.0 2.312846481800D-05-1.250555214938D-12 0.000000000000D+00
    8.300000000000D+01 5.593750000000D+00 5.005208487024D-09 1.109727533132D+00
    3.334134817123D-07 5.646582460031D-03 5.051493644714D-06 5.153603958130D+03
    1.728000000000D+05 8.568167686462D-08-1.620045387862D+00 1.117587089539D-08
    9.569349502846D-01 2.726875000000D+02-3.532142746666D-01-8.108552039454D-09
    2.678683006471D-11 1.000000000000D+00 1.535000000000D+03 0.000000000000D+00
    2.000000000000D+00 0.000000000000D+00-1.443549990654D-08 8.300000000000D+01
    1.687620000000D+05 4.000000000000D+00
